{"fetched_at":"2026-03-29T16:36:15Z","count":15609,"tles":[{"name":"STARLINK-32689","line1":"1 62440U 24251J   26087.69965579  .00019179  00000+0  65786-3 0  9990","line2":"2 62440  53.1615 246.6668 0000747  74.2749 285.8335 15.30207089 70868","category":"Starlink"}]}